[{"CCSDS_OMM_VERS":"2.0","COMMENT":"GENERATED VIA SPACE-TRACK.ORG API","CREATION_DATE":"2020-12-13T22:46:10","ORIGINATOR":"18 SPCS","OBJECT_NAME":"STARLINK-1098","OBJECT_ID":"2020-001D","CENTER_NAME":"EARTH","REF_FRAME":"TEME","TIME_SYSTEM":"UTC","MEAN_ELEMENT_THEORY":"SGP4","EPOCH":"2020-12-13T13:47:47.501376","MEAN_MOTION":"15.05586514","ECCENTRICITY":"0.00017430","INCLINATION":"53.0012","RA_OF_ASC_NODE":"290.4356","ARG_OF_PERICENTER":"63.7036","MEAN_ANOMALY":"296.4131","EPHEMERIS_TYPE":"0","CLASSIFICATION_TYPE":"U","NORAD_CAT_ID":"44917","ELEMENT_SET_NO":"999","REV_AT_EPOCH":"5165","BSTAR":"-0.00004456900000","MEAN_MOTION_DOT":"-0.00000929","MEAN_MOTION_DDOT":"0.0000000000000","SEMIMAJOR_AXIS":"6927.842","PERIOD":"95.643","APOAPSIS":"550.915","PERIAPSIS":"548.500","OBJECT_TYPE":"PAYLOAD","RCS_SIZE":"LARGE","COUNTRY_CODE":"US","LAUNCH_DATE":"2020-01-07","SITE":"AFETR","DECAY_DATE":null,"FILE":"2902611","GP_ID":"167744705","TLE_LINE0":"0 STARLINK-1098","TLE_LINE1":"1 44917U 20001D   20348.57485534 -.00000929  00000-0 -44569-4 0  9990","TLE_LINE2":"2 44917  53.0012 290.4356 0001743  63.7036 296.4131 15.05586514 51650"},{"CCSDS_OMM_VERS":"2.0","COMMENT":"GENERATED VIA SPACE-TRACK.ORG API","CREATION_DATE":"2020-12-14T19:41:07","ORIGINATOR":"18 SPCS","OBJECT_NAME":"STARLINK-1098","OBJECT_ID":"2020-001D","CENTER_NAME":"EARTH","REF_FRAME":"TEME","TIME_SYSTEM":"UTC","MEAN_ELEMENT_THEORY":"SGP4","EPOCH":"2020-12-14T13:41:39.206688","MEAN_MOTION":"15.05582358","ECCENTRICITY":"0.00017890","INCLINATION":"53.0012","RA_OF_ASC_NODE":"285.9656","ARG_OF_PERICENTER":"63.7250","MEAN_ANOMALY":"296.3922","EPHEMERIS_TYPE":"0","CLASSIFICATION_TYPE":"U","NORAD_CAT_ID":"44917","ELEMENT_SET_NO":"999","REV_AT_EPOCH":"5180","BSTAR":"0.00007701400000","MEAN_MOTION_DOT":"0.00000843","MEAN_MOTION_DDOT":"0.0000000000000","SEMIMAJOR_AXIS":"6927.855","PERIOD":"95.644","APOAPSIS":"550.960","PERIAPSIS":"548.481","OBJECT_TYPE":"PAYLOAD","RCS_SIZE":"LARGE","COUNTRY_CODE":"US","LAUNCH_DATE":"2020-01-07","SITE":"AFETR","DECAY_DATE":null,"FILE":"2902965","GP_ID":"167815849","TLE_LINE0":"0 STARLINK-1098","TLE_LINE1":"1 44917U 20001D   20349.57059267  .00000843  00000-0  77014-4 0  9995","TLE_LINE2":"2 44917  53.0012 285.9656 0001789  63.7250 296.3922 15.05582358 51806"},{"CCSDS_OMM_VERS":"2.0","COMMENT":"GENERATED VIA SPACE-TRACK.ORG API","CREATION_DATE":"2020-12-14T22:46:10","ORIGINATOR":"18 SPCS","OBJECT_NAME":"STARLINK-1098","OBJECT_ID":"2020-001D","CENTER_NAME":"EARTH","REF_FRAME":"TEME","TIME_SYSTEM":"UTC","MEAN_ELEMENT_THEORY":"SGP4","EPOCH":"2020-12-14T18:28:25.447872","MEAN_MOTION":"15.05584579","ECCENTRICITY":"0.00017980","INCLINATION":"53.0012","RA_OF_ASC_NODE":"285.0715","ARG_OF_PERICENTER":"64.1544","MEAN_ANOMALY":"295.9630","EPHEMERIS_TYPE":"0","CLASSIFICATION_TYPE":"U","NORAD_CAT_ID":"44917","ELEMENT_SET_NO":"999","REV_AT_EPOCH":"5183","BSTAR":"0.00007756600000","MEAN_MOTION_DOT":"0.00000851","MEAN_MOTION_DDOT":"0.0000000000000","SEMIMAJOR_AXIS":"6927.848","PERIOD":"95.643","APOAPSIS":"550.959","PERIAPSIS":"548.468","OBJECT_TYPE":"PAYLOAD","RCS_SIZE":"LARGE","COUNTRY_CODE":"US","LAUNCH_DATE":"2020-01-07","SITE":"AFETR","DECAY_DATE":null,"FILE":"2903076","GP_ID":"167819183","TLE_LINE0":"0 STARLINK-1098","TLE_LINE1":"1 44917U 20001D   20349.76973898  .00000851  00000-0  77566-4 0  9992","TLE_LINE2":"2 44917  53.0012 285.0715 0001798  64.1544 295.9630 15.05584579 51835"},{"CCSDS_OMM_VERS":"2.0","COMMENT":"GENERATED VIA SPACE-TRACK.ORG API","CREATION_DATE":"2020-12-16T00:49:11","ORIGINATOR":"18 SPCS","OBJECT_NAME":"STARLINK-1098","OBJECT_ID":"2020-001D","CENTER_NAME":"EARTH","REF_FRAME":"TEME","TIME_SYSTEM":"UTC","MEAN_ELEMENT_THEORY":"SGP4","EPOCH":"2020-12-15T02:26:22.666272","MEAN_MOTION":"15.05585271","ECCENTRICITY":"0.00018340","INCLINATION":"53.0012","RA_OF_ASC_NODE":"283.5818","ARG_OF_PERICENTER":"63.4116","MEAN_ANOMALY":"296.7060","EPHEMERIS_TYPE":"0","CLASSIFICATION_TYPE":"U","NORAD_CAT_ID":"44917","ELEMENT_SET_NO":"999","REV_AT_EPOCH":"5188","BSTAR":"0.00007766800000","MEAN_MOTION_DOT":"0.00000852","MEAN_MOTION_DDOT":"0.0000000000000","SEMIMAJOR_AXIS":"6927.846","PERIOD":"95.643","APOAPSIS":"550.982","PERIAPSIS":"548.441","OBJECT_TYPE":"PAYLOAD","RCS_SIZE":"LARGE","COUNTRY_CODE":"US","LAUNCH_DATE":"2020-01-07","SITE":"AFETR","DECAY_DATE":null,"FILE":"2903454","GP_ID":"167847811","TLE_LINE0":"0 STARLINK-1098","TLE_LINE1":"1 44917U 20001D   20350.10165123  .00000852  00000-0  77668-4 0  9990","TLE_LINE2":"2 44917  53.0012 283.5818 0001834  63.4116 296.7060 15.05585271 51881"},{"CCSDS_OMM_VERS":"2.0","COMMENT":"GENERATED VIA SPACE-TRACK.ORG API","CREATION_DATE":"2020-12-16T07:36:09","ORIGINATOR":"18 SPCS","OBJECT_NAME":"STARLINK-1098","OBJECT_ID":"2020-001D","CENTER_NAME":"EARTH","REF_FRAME":"TEME","TIME_SYSTEM":"UTC","MEAN_ELEMENT_THEORY":"SGP4","EPOCH":"2020-12-15T23:09:03.224160","MEAN_MOTION":"15.05588484","ECCENTRICITY":"0.00018810","INCLINATION":"53.0012","RA_OF_ASC_NODE":"279.7075","ARG_OF_PERICENTER":"64.7863","MEAN_ANOMALY":"295.3320","EPHEMERIS_TYPE":"0","CLASSIFICATION_TYPE":"U","NORAD_CAT_ID":"44917","ELEMENT_SET_NO":"999","REV_AT_EPOCH":"5201","BSTAR":"0.00007164800000","MEAN_MOTION_DOT":"0.00000765","MEAN_MOTION_DDOT":"0.0000000000000","SEMIMAJOR_AXIS":"6927.836","PERIOD":"95.643","APOAPSIS":"551.004","PERIAPSIS":"548.398","OBJECT_TYPE":"PAYLOAD","RCS_SIZE":"LARGE","COUNTRY_CODE":"US","LAUNCH_DATE":"2020-01-07","SITE":"AFETR","DECAY_DATE":null,"FILE":"2903683","GP_ID":"167875583","TLE_LINE0":"0 STARLINK-1098","TLE_LINE1":"1 44917U 20001D   20350.96462065  .00000765  00000-0  71648-4 0  9994","TLE_LINE2":"2 44917  53.0012 279.7075 0001881  64.7863 295.3320 15.05588484 52017"},{"CCSDS_OMM_VERS":"2.0","COMMENT":"GENERATED VIA SPACE-TRACK.ORG API","CREATION_DATE":"2020-12-17T05:51:21","ORIGINATOR":"18 SPCS","OBJECT_NAME":"STARLINK-1098","OBJECT_ID":"2020-001D","CENTER_NAME":"EARTH","REF_FRAME":"TEME","TIME_SYSTEM":"UTC","MEAN_ELEMENT_THEORY":"SGP4","EPOCH":"2020-12-16T15:04:57.354240","MEAN_MOTION":"15.05591648","ECCENTRICITY":"0.00019140","INCLINATION":"53.0012","RA_OF_ASC_NODE":"276.7274","ARG_OF_PERICENTER":"64.8237","MEAN_ANOMALY":"295.2949","EPHEMERIS_TYPE":"0","CLASSIFICATION_TYPE":"U","NORAD_CAT_ID":"44917","ELEMENT_SET_NO":"999","REV_AT_EPOCH":"5211","BSTAR":"0.00006832500000","MEAN_MOTION_DOT":"0.00000716","MEAN_MOTION_DDOT":"0.0000000000000","SEMIMAJOR_AXIS":"6927.827","PERIOD":"95.643","APOAPSIS":"551.018","PERIAPSIS":"548.366","OBJECT_TYPE":"PAYLOAD","RCS_SIZE":"LARGE","COUNTRY_CODE":"US","LAUNCH_DATE":"2020-01-07","SITE":"AFETR","DECAY_DATE":null,"FILE":"2904134","GP_ID":"167925931","TLE_LINE0":"0 STARLINK-1098","TLE_LINE1":"1 44917U 20001D   20351.62844160  .00000716  00000-0  68325-4 0  9992","TLE_LINE2":"2 44917  53.0012 276.7274 0001914  64.8237 295.2949 15.05591648 52111"},{"CCSDS_OMM_VERS":"2.0","COMMENT":"GENERATED VIA SPACE-TRACK.ORG API","CREATION_DATE":"2020-12-17T06:46:10","ORIGINATOR":"18 SPCS","OBJECT_NAME":"STARLINK-1098","OBJECT_ID":"2020-001D","CENTER_NAME":"EARTH","REF_FRAME":"TEME","TIME_SYSTEM":"UTC","MEAN_ELEMENT_THEORY":"SGP4","EPOCH":"2020-12-17T03:49:42.025152","MEAN_MOTION":"15.05578009","ECCENTRICITY":"0.00019190","INCLINATION":"53.0013","RA_OF_ASC_NODE":"274.3433","ARG_OF_PERICENTER":"64.9216","MEAN_ANOMALY":"295.1971","EPHEMERIS_TYPE":"0","CLASSIFICATION_TYPE":"U","NORAD_CAT_ID":"44917","ELEMENT_SET_NO":"999","REV_AT_EPOCH":"5219","BSTAR":"-0.00005657500000","MEAN_MOTION_DOT":"-0.00001104","MEAN_MOTION_DDOT":"0.0000000000000","SEMIMAJOR_AXIS":"6927.868","PERIOD":"95.644","APOAPSIS":"551.063","PERIAPSIS":"548.404","OBJECT_TYPE":"PAYLOAD","RCS_SIZE":"LARGE","COUNTRY_CODE":"US","LAUNCH_DATE":"2020-01-07","SITE":"AFETR","DECAY_DATE":null,"FILE":"2904302","GP_ID":"167932049","TLE_LINE0":"0 STARLINK-1098","TLE_LINE1":"1 44917U 20001D   20352.15951418 -.00001104  00000-0 -56575-4 0  9994","TLE_LINE2":"2 44917  53.0013 274.3433 0001919  64.9216 295.1971 15.05578009 52194"},{"CCSDS_OMM_VERS":"2.0","COMMENT":"GENERATED VIA SPACE-TRACK.ORG API","CREATION_DATE":"2020-12-17T23:07:23","ORIGINATOR":"18 SPCS","OBJECT_NAME":"STARLINK-1098","OBJECT_ID":"2020-001D","CENTER_NAME":"EARTH","REF_FRAME":"TEME","TIME_SYSTEM":"UTC","MEAN_ELEMENT_THEORY":"SGP4","EPOCH":"2020-12-17T11:47:39.376608","MEAN_MOTION":"15.05577627","ECCENTRICITY":"0.00019270","INCLINATION":"53.0013","RA_OF_ASC_NODE":"272.8533","ARG_OF_PERICENTER":"64.8624","MEAN_ANOMALY":"295.2564","EPHEMERIS_TYPE":"0","CLASSIFICATION_TYPE":"U","NORAD_CAT_ID":"44917","ELEMENT_SET_NO":"999","REV_AT_EPOCH":"5224","BSTAR":"-0.00005865900000","MEAN_MOTION_DOT":"-0.00001134","MEAN_MOTION_DDOT":"0.0000000000000","SEMIMAJOR_AXIS":"6927.870","PERIOD":"95.644","APOAPSIS":"551.070","PERIAPSIS":"548.400","OBJECT_TYPE":"PAYLOAD","RCS_SIZE":"LARGE","COUNTRY_CODE":"US","LAUNCH_DATE":"2020-01-07","SITE":"AFETR","DECAY_DATE":null,"FILE":"2904594","GP_ID":"167957450","TLE_LINE0":"0 STARLINK-1098","TLE_LINE1":"1 44917U 20001D   20352.49142797 -.00001134  00000-0 -58659-4 0  9991","TLE_LINE2":"2 44917  53.0013 272.8533 0001927  64.8624 295.2564 15.05577627 52249"}]